{
  "type": "FeatureCollection",
  "features": [
    {
      "type": "Feature",
      "properties": {
        "norad_id": 43783,
        "name": "KAZSTSAT",
        "group": "resource",
        "lat": 16.607336948895078,
        "lon": 29.00937638648822,
        "alt_km": 569.4389057492435,
        "timestamp": "2025-12-22T11:33:20.087119+00:00",
        "meta_object_name": "KAZSTSAT",
        "meta_object_id": "2018-099AB",
        "meta_epoch": "2025-12-21T01:50:44.888352",
        "meta_mean_motion": 14.99364891,
        "meta_eccentricity": 0.00060238,
        "meta_inclination": 97.4527,
        "meta_ra_of_asc_node": 29.903,
        "meta_arg_of_pericenter": 292.687,
        "meta_mean_anomaly": 67.3717,
        "meta_ephemeris_type": 0,
        "meta_classification_type": "U",
        "meta_norad_cat_id": 43783,
        "meta_element_set_no": 999,
        "meta_rev_at_epoch": 38461,
        "meta_bstar": 1.8043656e-05,
        "meta_mean_motion_dot": 1.65e-06,
        "meta_mean_motion_ddot": 0,
        "tle_line1": "1 43783U 18099AB  25355.07690843  .00000165  00000+0  18044-4 0  9991",
        "tle_line2": "2 43783  97.4527  29.9030 0006023 292.6870  67.3717 14.99364891384616"
      },
      "geometry": {
        "type": "Point",
        "coordinates": [
          29.00937638648822,
          16.607336948895078
        ]
      }
    },
    {
      "type": "Feature",
      "properties": {
        "norad_id": 43831,
        "name": "SAUDISAT 5A",
        "group": "resource",
        "lat": -82.34311420020093,
        "lon": 129.81768739312042,
        "alt_km": 501.20057484798326,
        "timestamp": "2025-12-22T11:33:20.087129+00:00",
        "meta_object_name": "SAUDISAT 5A",
        "meta_object_id": "2018-102A",
        "meta_epoch": "2025-12-22T04:04:12.252864",
        "meta_mean_motion": 15.25765764,
        "meta_eccentricity": 0.0011274,
        "meta_inclination": 97.3337,
        "meta_ra_of_asc_node": 56.1788,
        "meta_arg_of_pericenter": 47.0778,
        "meta_mean_anomaly": 313.1404,
        "meta_ephemeris_type": 0,
        "meta_classification_type": "U",
        "meta_norad_cat_id": 43831,
        "meta_element_set_no": 999,
        "meta_rev_at_epoch": 38866,
        "meta_bstar": 0.00026158,
        "meta_mean_motion_dot": 6.619e-05,
        "meta_mean_motion_ddot": 0,
        "tle_line1": "1 43831U 18102A   25356.16958626  .00006619  00000+0  26158-3 0  9991",
        "tle_line2": "2 43831  97.3337  56.1788 0011274  47.0778 313.1404 15.25765764388661"
      },
      "geometry": {
        "type": "Point",
        "coordinates": [
          129.81768739312042,
          -82.34311420020093
        ]
      }
    },
    {
      "type": "Feature",
      "properties": {
        "norad_id": 43833,
        "name": "SAUDISAT 5B",
        "group": "resource",
        "lat": -23.24894813038721,
        "lon": 62.416698725825775,
        "alt_km": 490.3527894596682,
        "timestamp": "2025-12-22T11:33:20.087139+00:00",
        "meta_object_name": "SAUDISAT 5B",
        "meta_object_id": "2018-102C",
        "meta_epoch": "2025-12-22T05:21:48.514752",
        "meta_mean_motion": 15.26114458,
        "meta_eccentricity": 0.0012015,
        "meta_inclination": 97.3433,
        "meta_ra_of_asc_node": 58.9872,
        "meta_arg_of_pericenter": 49.0308,
        "meta_mean_anomaly": 311.1968,
        "meta_ephemeris_type": 0,
        "meta_classification_type": "U",
        "meta_norad_cat_id": 43833,
        "meta_element_set_no": 999,
        "meta_rev_at_epoch": 38878,
        "meta_bstar": 0.00024846,
        "meta_mean_motion_dot": 6.351e-05,
        "meta_mean_motion_ddot": 0,
        "tle_line1": "1 43833U 18102C   25356.22347818  .00006351  00000+0  24846-3 0  9990",
        "tle_line2": "2 43833  97.3433  58.9872 0012015  49.0308 311.1968 15.26114458388784"
      },
      "geometry": {
        "type": "Point",
        "coordinates": [
          62.416698725825775,
          -23.24894813038721
        ]
      }
    },
    {
      "type": "Feature",
      "properties": {
        "norad_id": 44622,
        "name": "GAOFEN-10R",
        "group": "resource",
        "lat": -25.606019837345503,
        "lon": 120.14740906546767,
        "alt_km": 631.0341597838315,
        "timestamp": "2025-12-22T11:33:20.087150+00:00",
        "meta_object_name": "GAOFEN-10R",
        "meta_object_id": "2019-066A",
        "meta_epoch": "2025-12-22T04:09:08.611776",
        "meta_mean_motion": 14.82822516,
        "meta_eccentricity": 0.0007227,
        "meta_inclination": 98.0291,
        "meta_ra_of_asc_node": 303.7166,
        "meta_arg_of_pericenter": 14.2938,
        "meta_mean_anomaly": 345.8479,
        "meta_ephemeris_type": 0,
        "meta_classification_type": "U",
        "meta_norad_cat_id": 44622,
        "meta_element_set_no": 999,
        "meta_rev_at_epoch": 33614,
        "meta_bstar": 0.00018869,
        "meta_mean_motion_dot": 1.473e-05,
        "meta_mean_motion_ddot": 0,
        "tle_line1": "1 44622U 19066A   25356.17301634  .00001473  00000+0  18869-3 0  9995",
        "tle_line2": "2 44622  98.0291 303.7166 0007227  14.2938 345.8479 14.82822516336146"
      },
      "geometry": {
        "type": "Point",
        "coordinates": [
          120.14740906546767,
          -25.606019837345503
        ]
      }
    },
    {
      "type": "Feature",
      "properties": {
        "norad_id": 44804,
        "name": "CARTOSAT-3",
        "group": "resource",
        "lat": -22.783999945910022,
        "lon": -127.21289525806212,
        "alt_km": 521.8806669125433,
        "timestamp": "2025-12-22T11:33:20.087160+00:00",
        "meta_object_name": "CARTOSAT-3",
        "meta_object_id": "2019-081A",
        "meta_epoch": "2025-12-22T04:20:35.431296",
        "meta_mean_motion": 15.19225848,
        "meta_eccentricity": 0.0013707,
        "meta_inclination": 97.4572,
        "meta_ra_of_asc_node": 55.6443,
        "meta_arg_of_pericenter": 53.5533,
        "meta_mean_anomaly": 306.6963,
        "meta_ephemeris_type": 0,
        "meta_classification_type": "U",
        "meta_norad_cat_id": 44804,
        "meta_element_set_no": 999,
        "meta_rev_at_epoch": 33659,
        "meta_bstar": 0.00021729,
        "meta_mean_motion_dot": 4.518e-05,
        "meta_mean_motion_ddot": 0,
        "tle_line1": "1 44804U 19081A   25356.18096564  .00004518  00000+0  21729-3 0  9990",
        "tle_line2": "2 44804  97.4572  55.6443 0013707  53.5533 306.6963 15.19225848336599"
      },
      "geometry": {
        "type": "Point",
        "coordinates": [
          -127.21289525806212,
          -22.783999945910022
        ]
      }
    },
    {
      "type": "Feature",
      "properties": {
        "norad_id": 44819,
        "name": "GAOFEN-12 01",
        "group": "resource",
        "lat": 36.97039221667676,
        "lon": -3.425275723243067,
        "alt_km": 625.8028239095083,
        "timestamp": "2025-12-22T11:33:20.087170+00:00",
        "meta_object_name": "GAOFEN-12 01",
        "meta_object_id": "2019-082A",
        "meta_epoch": "2025-12-22T04:53:59.081856",
        "meta_mean_motion": 14.80667954,
        "meta_eccentricity": 0.0001965,
        "meta_inclination": 97.8124,
        "meta_ra_of_asc_node": 2.2367,
        "meta_arg_of_pericenter": 188.7014,
        "meta_mean_anomaly": 171.4165,
        "meta_ephemeris_type": 0,
        "meta_classification_type": "U",
        "meta_norad_cat_id": 44819,
        "meta_element_set_no": 999,
        "meta_rev_at_epoch": 32790,
        "meta_bstar": 6.6456e-05,
        "meta_mean_motion_dot": 4.6e-06,
        "meta_mean_motion_ddot": 0,
        "tle_line1": "1 44819U 19082A   25356.20415604  .00000460  00000+0  66456-4 0  9999",
        "tle_line2": "2 44819  97.8124   2.2367 0001965 188.7014 171.4165 14.80667954327905"
      },
      "geometry": {
        "type": "Point",
        "coordinates": [
          -3.425275723243067,
          36.97039221667676
        ]
      }
    },
    {
      "type": "Feature",
      "properties": {
        "norad_id": 44873,
        "name": "CSG-1",
        "group": "resource",
        "lat": -20.589862489551052,
        "lon": -5.323905489262418,
        "alt_km": 628.2627034682355,
        "timestamp": "2025-12-22T11:33:20.087180+00:00",
        "meta_object_name": "CSG-1",
        "meta_object_id": "2019-092A",
        "meta_epoch": "2025-12-22T04:10:19.396704",
        "meta_mean_motion": 14.82152473,
        "meta_eccentricity": 0.0001473,
        "meta_inclination": 97.8803,
        "meta_ra_of_asc_node": 177.3558,
        "meta_arg_of_pericenter": 85.333,
        "meta_mean_anomaly": 274.8051,
        "meta_ephemeris_type": 0,
        "meta_classification_type": "U",
        "meta_norad_cat_id": 44873,
        "meta_element_set_no": 999,
        "meta_rev_at_epoch": 32525,
        "meta_bstar": 7.4232e-05,
        "meta_mean_motion_dot": 5.39e-06,
        "meta_mean_motion_ddot": 0,
        "tle_line1": "1 44873U 19092A   25356.17383561  .00000539  00000+0  74232-4 0  9990",
        "tle_line2": "2 44873  97.8803 177.3558 0001473  85.3330 274.8051 14.82152473325257"
      },
      "geometry": {
        "type": "Point",
        "coordinates": [
          -5.323905489262418,
          -20.589862489551052
        ]
      }
    }
  ]
}